[Satellite]
VERSION=1.1
NAME=SL-16 R/B
NICKNAME=SL-16 R/B
TLE1=1 25400U 98043G   18020.74804280 -.00000009  00000-0  14297-4 0  9996
TLE2=2 25400  98.5174 327.3123 0010355  25.7714 334.3980 14.25427504 15839
